NORAD_CAT_ID,OBJECT_NAME,OBJECT_TYPE,EPOCH,MEAN_MOTION,ECCENTRICITY,INCLINATION,RA_OF_ASC_NODE,ARG_OF_PERICENTER,MEAN_ANOMALY,BSTAR,MEAN_MOTION_DOT,MEAN_MOTION_DDOT,TLE_LINE0,TLE_LINE1,TLE_LINE2,SEMIMAJOR_AXIS,PERIOD,APOGEE,PERIGEE,DECAYED
51860.0,STARLINK-3559,PAYLOAD,2024-01-27 13:37:52,15.08845617,0.0001397,53.2162,235.3157,76.9792,283.1356,0.00010587,1.398e-05,0.0,0 STARLINK-3559,1 51860U 22022J   24027.56797239  .00001398  00000-0  10587-3 0  9996,2 51860  53.2162 235.3157 0001397  76.9792 283.1356 15.08845617106557,6917.863,95.437,540.695,538.762,0.0
51860.0,STARLINK-3559,PAYLOAD,2024-01-27 19:59:25,15.08843233,0.0001394,53.2162,234.1238,76.4177,283.697,8.1092e-05,1.003e-05,0.0,0 STARLINK-3559,1 51860U 22022J   24027.83293419  .00001003  00000-0  81092-4 0  9990,2 51860  53.2162 234.1238 0001394  76.4177 283.6970 15.08843233106596,6917.871,95.437,540.7,538.771,0.0
51860.0,STARLINK-3559,PAYLOAD,2024-01-28 19:50:12,15.08840325,0.0001387,53.2158,229.6634,80.6996,279.4153,-6.9187e-06,-3.98e-06,0.0,0 STARLINK-3559,1 51860U 22022J   24028.82653646 -.00000398  00000-0 -69187-5 0  9992,2 51860  53.2158 229.6634 0001387  80.6996 279.4153 15.08840325106740,6917.879,95.438,540.704,538.785,0.0
51860.0,STARLINK-3559,PAYLOAD,2024-01-29 22:51:45,15.08844857,0.0001287,53.2154,224.6087,78.8105,281.3032,0.00010407,1.369e-05,0.0,0 STARLINK-3559,1 51860U 22022J   24029.95260796  .00001369  00000-0  10407-3 0  9993,2 51860  53.2154 224.6087 0001287  78.8105 281.3032 15.08844857106914,6917.866,95.437,540.621,538.84,0.0
51860.0,STARLINK-3559,PAYLOAD,2024-01-30 13:10:13,15.08839048,0.0001378,53.2163,221.9224,121.0267,239.0861,4.446e-05,4.2e-06,0.0,0 STARLINK-3559,1 51860U 22022J   24030.54877216  .00000420  00000-0  44460-4 0  9995,2 51860  53.2163 221.9224 0001378 121.0267 239.0861 15.08839048107005,6917.883,95.438,540.702,538.795,0.0
51860.0,STARLINK-3559,PAYLOAD,2024-01-30 19:31:45,15.08856098,0.0001436,53.2158,220.7368,117.6895,242.4243,0.000174,2.484e-05,0.0,0 STARLINK-3559,1 51860U 22022J   24030.81371755  .00002484  00000-0  17400-3 0  9997,2 51860  53.2158 220.7368 0001436 117.6895 242.4243 15.08856098107048,6917.831,95.437,540.69,538.703,0.0
51860.0,STARLINK-3559,PAYLOAD,2024-01-31 13:01:00,15.08836943,0.0001579,53.216,217.4667,117.7871,242.3282,6.9815e-05,8.23e-06,0.0,0 STARLINK-3559,1 51860U 22022J   24031.54237015  .00000823  00000-0  69815-4 0  9991,2 51860  53.2160 217.4667 0001579 117.7871 242.3282 15.08836943107150,6917.89,95.438,540.847,538.662,0.0
51860.0,STARLINK-3559,PAYLOAD,2024-01-31 20:57:57,15.0882968,0.0001045,53.2159,215.9818,97.665,262.4461,1.7029e-05,-1.7e-07,0.0,0 STARLINK-3559,1 51860U 22022J   24031.87357785 -.00000017  00000-0  17029-4 0  9990,2 51860  53.2159 215.9818 0001045  97.6650 262.4461 15.08829680107206,6917.912,95.438,540.5,539.054,0.0
51860.0,STARLINK-3559,PAYLOAD,2024-02-01 11:16:25,15.0882986,9.97e-05,53.2158,213.306,95.4685,264.6421,1.518e-05,-4.6e-07,0.0,0 STARLINK-3559,1 51860U 22022J   24032.46974120 -.00000046  00000-0  15180-4 0  9992,2 51860  53.2158 213.3060 0000997  95.4685 264.6421 15.08829860107294,6917.911,95.438,540.466,539.087,0.0
51860.0,STARLINK-3559,PAYLOAD,2024-02-01 14:27:11,15.08830966,9.55e-05,53.215,212.7123,95.5248,264.5853,2.9474e-05,1.81e-06,0.0,0 STARLINK-3559,1 51860U 22022J   24032.60222077  .00000181  00000-0  29474-4 0  9995,2 51860  53.2150 212.7123 0000955  95.5248 264.5853 15.08830966107319,6917.908,95.438,540.434,539.112,0.0
51860.0,STARLINK-3559,PAYLOAD,2024-02-02 19:04:07,15.08840018,0.0001096,53.2156,207.3587,89.1163,270.9954,0.00015944,2.251e-05,0.0,0 STARLINK-3559,1 51860U 22022J   24033.79453390  .00002251  00000-0  15944-3 0  9996,2 51860  53.2156 207.3587 0001096  89.1163 270.9954 15.08840018107492,6917.88,95.438,540.504,538.987,0.0
51860.0,STARLINK-3559,PAYLOAD,2024-02-02 20:39:30,15.08841156,0.0001111,53.2155,207.0611,90.1412,269.9707,0.00016787,2.385e-05,0.0,0 STARLINK-3559,1 51860U 22022J   24033.86077293  .00002385  00000-0  16787-3 0  9992,2 51860  53.2155 207.0611 0001111  90.1412 269.9707 15.08841156107503,6917.877,95.437,540.51,538.973,0.0
51860.0,STARLINK-3559,PAYLOAD,2024-02-03 10:57:59,15.08837752,0.0001157,53.2153,204.3828,107.3676,252.7443,2.3765e-05,9e-07,0.0,0 STARLINK-3559,1 51860U 22022J   24034.45694125  .00000090  00000-0  23765-4 0  9993,2 51860  53.2153 204.3828 0001157 107.3676 252.7443 15.08837752107597,6917.887,95.438,540.553,538.952,0.0
51860.0,STARLINK-3559,PAYLOAD,2024-02-03 18:54:55,15.08840608,0.0001167,53.2158,202.8973,95.615,264.4975,6.2524e-05,7.07e-06,0.0,0 STARLINK-3559,1 51860U 22022J   24034.78813927  .00000707  00000-0  62524-4 0  9993,2 51860  53.2158 202.8973 0001167  95.6150 264.4975 15.08840608107643,6917.879,95.438,540.551,538.936,0.0
51860.0,STARLINK-3559,PAYLOAD,2024-02-04 04:27:13,15.08813669,0.0001402,53.216,201.1136,103.9416,256.1732,0.00041156,6.263e-05,0.0,0 STARLINK-3559,1 51860U 22022J   24035.18557618  .00006263  00000-0  41156-3 0  9990,2 51860  53.2160 201.1136 0001402 103.9416 256.1732 15.08813669107702,6917.961,95.439,540.796,538.856,0.0
51860.0,STARLINK-3559,PAYLOAD,2024-02-04 17:10:18,15.08855402,0.0001209,53.2162,198.735,90.2986,269.8145,-2.9787e-05,-7.62e-06,0.0,0 STARLINK-3559,1 51860U 22022J   24035.71549299 -.00000762  00000-0 -29787-4 0  9992,2 51860  53.2162 198.7350 0001209  90.2986 269.8145 15.08855402107786,6917.833,95.437,540.535,538.862,0.0
51860.0,STARLINK-3559,PAYLOAD,2024-02-04 20:21:04,15.08860949,0.0001291,53.2156,198.1392,95.3199,264.7941,-7.3173e-05,-1.453e-05,0.0,0 STARLINK-3559,1 51860U 22022J   24035.84796897 -.00001453  00000-0 -73173-4 0  9990,2 51860  53.2156 198.1392 0001291  95.3199 264.7941 15.08860949107805,6917.816,95.436,540.574,538.788,0.0
51860.0,STARLINK-3559,PAYLOAD,2024-02-05 13:50:19,15.08841803,0.0001413,53.2159,194.8669,107.6037,252.5109,4.1185e-05,3.68e-06,0.0,0 STARLINK-3559,1 51860U 22022J   24036.57661775  .00000368  00000-0  41185-4 0  9997,2 51860  53.2159 194.8669 0001413 107.6037 252.5109 15.08841803107913,6917.875,95.437,540.717,538.762,0.0
51860.0,STARLINK-3559,PAYLOAD,2024-02-05 17:01:06,15.08841073,0.0001273,53.2165,194.2722,97.6636,262.4501,2.6845e-05,1.39e-06,0.0,0 STARLINK-3559,1 51860U 22022J   24036.70909920  .00000139  00000-0  26845-4 0  9991,2 51860  53.2165 194.2722 0001273  97.6636 262.4501 15.08841073107938,6917.877,95.437,540.623,538.861,0.0
51860.0,STARLINK-3559,PAYLOAD,2024-02-06 13:41:06,15.08842786,0.0001413,53.2166,190.4068,94.8909,265.2245,2.3878e-05,9.2e-07,0.0,0 STARLINK-3559,1 51860U 22022J   24037.57021878  .00000092  00000-0  23878-4 0  9995,2 51860  53.2166 190.4068 0001413  94.8909 265.2245 15.08842786108061,6917.872,95.437,540.714,538.759,0.0
51860.0,STARLINK-3559,PAYLOAD,2024-02-06 16:51:53,15.08843345,0.0001425,53.2167,189.8113,92.7409,267.3747,4.318e-05,3.99e-06,0.0,0 STARLINK-3559,1 51860U 22022J   24037.70269748  .00000399  00000-0  43180-4 0  9998,2 51860  53.2167 189.8113 0001425  92.7409 267.3747 15.08843345108084,6917.87,95.437,540.721,538.749,0.0
51860.0,STARLINK-3559,PAYLOAD,2024-02-07 10:21:08,15.08835108,0.0001514,53.2174,186.5466,97.0942,263.0222,5.0793e-05,5.2e-06,0.0,0 STARLINK-3559,1 51860U 22022J   24038.43134414  .00000520  00000-0  50793-4 0  9994,2 51860  53.2174 186.5466 0001514  97.0942 263.0222 15.08835108108197,6917.895,95.438,540.808,538.713,0.0
51860.0,STARLINK-3559,PAYLOAD,2024-02-07 13:31:54,15.08837755,0.0001517,53.2174,185.9525,105.0942,255.0218,5.0873e-05,5.22e-06,0.0,0 STARLINK-3559,1 51860U 22022J   24038.56382271  .00000522  00000-0  50873-4 0  9995,2 51860  53.2174 185.9525 0001517 105.0942 255.0218 15.08837755108218,6917.887,95.438,540.802,538.703,0.0
51860.0,STARLINK-3559,PAYLOAD,2024-02-07 16:42:40,15.08841519,0.0001508,53.2179,185.3581,107.3482,252.7675,7.2302e-05,8.63e-06,0.0,0 STARLINK-3559,1 51860U 22022J   24038.69629981  .00000863  00000-0  72302-4 0  9990,2 51860  53.2179 185.3581 0001508 107.3482 252.7675 15.08841519108239,6917.876,95.437,540.784,538.698,0.0
51860.0,STARLINK-3559,PAYLOAD,2024-02-08 10:11:55,15.08831402,0.0001554,53.2176,182.086,104.1974,255.9191,9.4972e-06,-1.37e-06,0.0,0 STARLINK-3559,1 51860U 22022J   24039.42495178 -.00000137  00000-0  94972-5 0  9994,2 51860  53.2176 182.0860 0001554 104.1974 255.9191 15.08831402108342,6917.907,95.438,540.847,538.697,0.0
51860.0,STARLINK-3559,PAYLOAD,2024-02-08 13:22:42,15.08830216,0.0001573,53.2177,181.4901,104.2809,255.8358,-7.1548e-06,-4.02e-06,0.0,0 STARLINK-3559,1 51860U 22022J   24039.55743358 -.00000402  00000-0 -71548-5 0  9994,2 51860  53.2177 181.4901 0001573 104.2809 255.8358 15.08830216108369,6917.91,95.438,540.863,538.687,0.0
51860.0,STARLINK-3559,PAYLOAD,2024-02-08 14:58:05,15.08829627,0.0001544,53.2177,181.1926,101.9984,258.1181,-1.5037e-05,-5.27e-06,0.0,0 STARLINK-3559,1 51860U 22022J   24039.62367459 -.00000527  00000-0 -15037-4 0  9994,2 51860  53.2177 181.1926 0001544 101.9984 258.1181 15.08829627108374,6917.912,95.438,540.845,538.709,0.0
51860.0,STARLINK-3559,PAYLOAD,2024-02-09 13:13:28,15.08843198,0.000125,53.2158,177.0243,85.7777,274.3358,7.5197e-05,9.09e-06,0.0,0 STARLINK-3559,1 51860U 22022J   24040.55102639  .00000909  00000-0  75197-4 0  9990,2 51860  53.2158 177.0243 0001250  85.7777 274.3358 15.08843198108513,6917.871,95.437,540.6,538.871,0.0
51860.0,STARLINK-3559,PAYLOAD,2024-02-09 19:35:00,15.08855449,0.0001397,53.2171,175.8362,91.5428,268.5724,0.00016923,2.407e-05,0.0,0 STARLINK-3559,1 51860U 22022J   24040.81597550  .00002407  00000-0  16923-3 0  9995,2 51860  53.2171 175.8362 0001397  91.5428 268.5724 15.08855449108554,6917.833,95.437,540.665,538.732,0.0
51860.0,STARLINK-3559,PAYLOAD,2024-02-10 13:04:15,15.08839239,0.0001554,53.2162,172.5616,102.1338,257.9828,0.00013179,1.81e-05,0.0,0 STARLINK-3559,1 51860U 22022J   24041.54462851  .00001810  00000-0  13179-3 0  9998,2 51860  53.2162 172.5616 0001554 102.1338 257.9828 15.08839239108662,6917.883,95.438,540.823,538.673,0.0
